<?xml version="1.0" encoding="UTF-8"?>
<ndm xmlns:xsi="http://www.w3.org/2001/XMLSchema-instance" xsi:noNamespaceSchemaLocation="https://sanaregistry.org/r/ndmxml_unqualified/ndmxml-2.0.0-master-2.0.xsd">
<omm id="CCSDS_OMM_VERS" version="2.0">
<header><CREATION_DATE/><ORIGINATOR/></header><body><segment><metadata><OBJECT_NAME>ORBCOMM FM05 [-]</OBJECT_NAME><OBJECT_ID>1997-084F</OBJECT_ID><CENTER_NAME>EARTH</CENTER_NAME><REF_FRAME>TEME</REF_FRAME><TIME_SYSTEM>UTC</TIME_SYSTEM><MEAN_ELEMENT_THEORY>SGP4</MEAN_ELEMENT_THEORY></metadata><data><meanElements><EPOCH>2023-08-22T02:13:14.092608</EPOCH><MEAN_MOTION>14.41280182</MEAN_MOTION><ECCENTRICITY>.0002452</ECCENTRICITY><INCLINATION>45.0173</INCLINATION><RA_OF_ASC_NODE>308.4971</RA_OF_ASC_NODE><ARG_OF_PERICENTER>172.9142</ARG_OF_PERICENTER><MEAN_ANOMALY>187.1742</MEAN_ANOMALY></meanElements><tleParameters><EPHEMERIS_TYPE>0</EPHEMERIS_TYPE><CLASSIFICATION_TYPE>U</CLASSIFICATION_TYPE><NORAD_CAT_ID>25117</NORAD_CAT_ID><ELEMENT_SET_NO>999</ELEMENT_SET_NO><REV_AT_EPOCH>34545</REV_AT_EPOCH><BSTAR>.47047E-3</BSTAR><MEAN_MOTION_DOT>.1392E-4</MEAN_MOTION_DOT><MEAN_MOTION_DDOT>0</MEAN_MOTION_DDOT></tleParameters></data></segment></body></omm>
<omm id="CCSDS_OMM_VERS" version="2.0">
<header><CREATION_DATE/><ORIGINATOR/></header><body><segment><metadata><OBJECT_NAME>ORBCOMM FM06 [+]</OBJECT_NAME><OBJECT_ID>1997-084G</OBJECT_ID><CENTER_NAME>EARTH</CENTER_NAME><REF_FRAME>TEME</REF_FRAME><TIME_SYSTEM>UTC</TIME_SYSTEM><MEAN_ELEMENT_THEORY>SGP4</MEAN_ELEMENT_THEORY></metadata><data><meanElements><EPOCH>2023-08-22T11:27:51.666048</EPOCH><MEAN_MOTION>14.41214443</MEAN_MOTION><ECCENTRICITY>.0002444</ECCENTRICITY><INCLINATION>45.0167</INCLINATION><RA_OF_ASC_NODE>306.7962</RA_OF_ASC_NODE><ARG_OF_PERICENTER>198.2088</ARG_OF_PERICENTER><MEAN_ANOMALY>238.3432</MEAN_ANOMALY></meanElements><tleParameters><EPHEMERIS_TYPE>0</EPHEMERIS_TYPE><CLASSIFICATION_TYPE>U</CLASSIFICATION_TYPE><NORAD_CAT_ID>25118</NORAD_CAT_ID><ELEMENT_SET_NO>999</ELEMENT_SET_NO><REV_AT_EPOCH>34550</REV_AT_EPOCH><BSTAR>.53403E-3</BSTAR><MEAN_MOTION_DOT>.1597E-4</MEAN_MOTION_DOT><MEAN_MOTION_DDOT>0</MEAN_MOTION_DDOT></tleParameters></data></segment></body></omm>
<omm id="CCSDS_OMM_VERS" version="2.0">
<header><CREATION_DATE/><ORIGINATOR/></header><body><segment><metadata><OBJECT_NAME>ORBCOMM FM07 [-]</OBJECT_NAME><OBJECT_ID>1997-084H</OBJECT_ID><CENTER_NAME>EARTH</CENTER_NAME><REF_FRAME>TEME</REF_FRAME><TIME_SYSTEM>UTC</TIME_SYSTEM><MEAN_ELEMENT_THEORY>SGP4</MEAN_ELEMENT_THEORY></metadata><data><meanElements><EPOCH>2023-08-22T23:55:57.609984</EPOCH><MEAN_MOTION>14.41160095</MEAN_MOTION><ECCENTRICITY>.0002403</ECCENTRICITY><INCLINATION>45.0159</INCLINATION><RA_OF_ASC_NODE>304.7403</RA_OF_ASC_NODE><ARG_OF_PERICENTER>156.8628</ARG_OF_PERICENTER><MEAN_ANOMALY>203.2330</MEAN_ANOMALY></meanElements><tleParameters><EPHEMERIS_TYPE>0</EPHEMERIS_TYPE><CLASSIFICATION_TYPE>U</CLASSIFICATION_TYPE><NORAD_CAT_ID>25119</NORAD_CAT_ID><ELEMENT_SET_NO>999</ELEMENT_SET_NO><REV_AT_EPOCH>34557</REV_AT_EPOCH><BSTAR>.47637E-3</BSTAR><MEAN_MOTION_DOT>.1407E-4</MEAN_MOTION_DOT><MEAN_MOTION_DDOT>0</MEAN_MOTION_DDOT></tleParameters></data></segment></body></omm>
<omm id="CCSDS_OMM_VERS" version="2.0">
<header><CREATION_DATE/><ORIGINATOR/></header><body><segment><metadata><OBJECT_NAME>ORBCOMM FM03 [-]</OBJECT_NAME><OBJECT_ID>1998-007B</OBJECT_ID><CENTER_NAME>EARTH</CENTER_NAME><REF_FRAME>TEME</REF_FRAME><TIME_SYSTEM>UTC</TIME_SYSTEM><MEAN_ELEMENT_THEORY>SGP4</MEAN_ELEMENT_THEORY></metadata><data><meanElements><EPOCH>2023-08-23T11:22:53.110848</EPOCH><MEAN_MOTION>14.31172128</MEAN_MOTION><ECCENTRICITY>.0049302</ECCENTRICITY><INCLINATION>107.9803</INCLINATION><RA_OF_ASC_NODE>215.6647</RA_OF_ASC_NODE><ARG_OF_PERICENTER>325.0595</ARG_OF_PERICENTER><MEAN_ANOMALY>34.7311</MEAN_ANOMALY></meanElements><tleParameters><EPHEMERIS_TYPE>0</EPHEMERIS_TYPE><CLASSIFICATION_TYPE>U</CLASSIFICATION_TYPE><NORAD_CAT_ID>25158</NORAD_CAT_ID><ELEMENT_SET_NO>999</ELEMENT_SET_NO><REV_AT_EPOCH>32912</REV_AT_EPOCH><BSTAR>.56124E-3</BSTAR><MEAN_MOTION_DOT>.1372E-4</MEAN_MOTION_DOT><MEAN_MOTION_DDOT>0</MEAN_MOTION_DDOT></tleParameters></data></segment></body></omm>
<omm id="CCSDS_OMM_VERS" version="2.0">
<header><CREATION_DATE/><ORIGINATOR/></header><body><segment><metadata><OBJECT_NAME>ORBCOMM FM04 [+]</OBJECT_NAME><OBJECT_ID>1998-007C</OBJECT_ID><CENTER_NAME>EARTH</CENTER_NAME><REF_FRAME>TEME</REF_FRAME><TIME_SYSTEM>UTC</TIME_SYSTEM><MEAN_ELEMENT_THEORY>SGP4</MEAN_ELEMENT_THEORY></metadata><data><meanElements><EPOCH>2023-08-22T21:09:54.417312</EPOCH><MEAN_MOTION>14.31451868</MEAN_MOTION><ECCENTRICITY>.0044766</ECCENTRICITY><INCLINATION>107.9788</INCLINATION><RA_OF_ASC_NODE>217.2134</RA_OF_ASC_NODE><ARG_OF_PERICENTER>323.9885</ARG_OF_PERICENTER><MEAN_ANOMALY>35.8240</MEAN_ANOMALY></meanElements><tleParameters><EPHEMERIS_TYPE>0</EPHEMERIS_TYPE><CLASSIFICATION_TYPE>U</CLASSIFICATION_TYPE><NORAD_CAT_ID>25159</NORAD_CAT_ID><ELEMENT_SET_NO>999</ELEMENT_SET_NO><REV_AT_EPOCH>32917</REV_AT_EPOCH><BSTAR>.57827E-3</BSTAR><MEAN_MOTION_DOT>.1423E-4</MEAN_MOTION_DOT><MEAN_MOTION_DDOT>0</MEAN_MOTION_DDOT></tleParameters></data></segment></body></omm>
<omm id="CCSDS_OMM_VERS" version="2.0">
<header><CREATION_DATE/><ORIGINATOR/></header><body><segment><metadata><OBJECT_NAME>ORBCOMM FM17 [-]</OBJECT_NAME><OBJECT_ID>1998-046A</OBJECT_ID><CENTER_NAME>EARTH</CENTER_NAME><REF_FRAME>TEME</REF_FRAME><TIME_SYSTEM>UTC</TIME_SYSTEM><MEAN_ELEMENT_THEORY>SGP4</MEAN_ELEMENT_THEORY></metadata><data><meanElements><EPOCH>2023-08-23T03:13:33.271968</EPOCH><MEAN_MOTION>14.32250781</MEAN_MOTION><ECCENTRICITY>.0000956</ECCENTRICITY><INCLINATION>44.9947</INCLINATION><RA_OF_ASC_NODE>143.8831</RA_OF_ASC_NODE><ARG_OF_PERICENTER>87.6670</ARG_OF_PERICENTER><MEAN_ANOMALY>272.4285</MEAN_ANOMALY></meanElements><tleParameters><EPHEMERIS_TYPE>0</EPHEMERIS_TYPE><CLASSIFICATION_TYPE>U</CLASSIFICATION_TYPE><NORAD_CAT_ID>25413</NORAD_CAT_ID><ELEMENT_SET_NO>999</ELEMENT_SET_NO><REV_AT_EPOCH>30805</REV_AT_EPOCH><BSTAR>.45443E-3</BSTAR><MEAN_MOTION_DOT>.1096E-4</MEAN_MOTION_DOT><MEAN_MOTION_DDOT>0</MEAN_MOTION_DDOT></tleParameters></data></segment></body></omm>
<omm id="CCSDS_OMM_VERS" version="2.0">
<header><CREATION_DATE/><ORIGINATOR/></header><body><segment><metadata><OBJECT_NAME>ORBCOMM FM18 [-]</OBJECT_NAME><OBJECT_ID>1998-046B</OBJECT_ID><CENTER_NAME>EARTH</CENTER_NAME><REF_FRAME>TEME</REF_FRAME><TIME_SYSTEM>UTC</TIME_SYSTEM><MEAN_ELEMENT_THEORY>SGP4</MEAN_ELEMENT_THEORY></metadata><data><meanElements><EPOCH>2023-08-22T13:25:02.272512</EPOCH><MEAN_MOTION>14.34705068</MEAN_MOTION><ECCENTRICITY>.0003945</ECCENTRICITY><INCLINATION>44.9944</INCLINATION><RA_OF_ASC_NODE>78.9216</RA_OF_ASC_NODE><ARG_OF_PERICENTER>174.2939</ARG_OF_PERICENTER><MEAN_ANOMALY>185.7953</MEAN_ANOMALY></meanElements><tleParameters><EPHEMERIS_TYPE>0</EPHEMERIS_TYPE><CLASSIFICATION_TYPE>U</CLASSIFICATION_TYPE><NORAD_CAT_ID>25414</NORAD_CAT_ID><ELEMENT_SET_NO>999</ELEMENT_SET_NO><REV_AT_EPOCH>30885</REV_AT_EPOCH><BSTAR>.50873E-3</BSTAR><MEAN_MOTION_DOT>.1313E-4</MEAN_MOTION_DOT><MEAN_MOTION_DDOT>0</MEAN_MOTION_DDOT></tleParameters></data></segment></body></omm>
<omm id="CCSDS_OMM_VERS" version="2.0">
<header><CREATION_DATE/><ORIGINATOR/></header><body><segment><metadata><OBJECT_NAME>ORBCOMM FM19 [+]</OBJECT_NAME><OBJECT_ID>1998-046C</OBJECT_ID><CENTER_NAME>EARTH</CENTER_NAME><REF_FRAME>TEME</REF_FRAME><TIME_SYSTEM>UTC</TIME_SYSTEM><MEAN_ELEMENT_THEORY>SGP4</MEAN_ELEMENT_THEORY></metadata><data><meanElements><EPOCH>2023-08-22T01:00:14.733216</EPOCH><MEAN_MOTION>14.34585264</MEAN_MOTION><ECCENTRICITY>.0002825</ECCENTRICITY><INCLINATION>44.9954</INCLINATION><RA_OF_ASC_NODE>82.4575</RA_OF_ASC_NODE><ARG_OF_PERICENTER>158.4439</ARG_OF_PERICENTER><MEAN_ANOMALY>2.0348</MEAN_ANOMALY></meanElements><tleParameters><EPHEMERIS_TYPE>0</EPHEMERIS_TYPE><CLASSIFICATION_TYPE>U</CLASSIFICATION_TYPE><NORAD_CAT_ID>25415</NORAD_CAT_ID><ELEMENT_SET_NO>999</ELEMENT_SET_NO><REV_AT_EPOCH>30877</REV_AT_EPOCH><BSTAR>.47816E-3</BSTAR><MEAN_MOTION_DOT>.1222E-4</MEAN_MOTION_DOT><MEAN_MOTION_DDOT>0</MEAN_MOTION_DDOT></tleParameters></data></segment></body></omm>

</ndm>
