ORBCOMM FM05 [-]        
1 25117U 97084F   23234.09252422  .00001392  00000+0  47047-3 0  9993
2 25117  45.0173 308.4971 0002452 172.9142 187.1742 14.41280182345451
ORBCOMM FM06 [+]        
1 25118U 97084G   23234.47768132  .00001597  00000+0  53403-3 0  9996
2 25118  45.0167 306.7962 0002444 198.2088 238.3432 14.41214443345505
ORBCOMM FM07 [-]        
1 25119U 97084H   23234.99719456  .00001407  00000+0  47637-3 0  9991
2 25119  45.0159 304.7403 0002403 156.8628 203.2330 14.41160095345578
ORBCOMM FM03 [-]        
1 25158U 98007B   23235.47422582  .00001372  00000+0  56124-3 0  9997
2 25158 107.9803 215.6647 0049302 325.0595  34.7311 14.31172128329125
ORBCOMM FM04 [+]        
1 25159U 98007C   23234.88187983  .00001423  00000+0  57827-3 0  9993
2 25159 107.9788 217.2134 0044766 323.9885  35.8240 14.31451868329174
ORBCOMM FM17 [-]        
1 25413U 98046A   23235.13441287  .00001096  00000+0  45443-3 0  9995
2 25413  44.9947 143.8831 0000956  87.6670 272.4285 14.32250781308055
ORBCOMM FM18 [-]        
1 25414U 98046B   23234.55905408  .00001313  00000+0  50873-3 0  9996
2 25414  44.9944  78.9216 0003945 174.2939 185.7953 14.34705068308851
ORBCOMM FM19 [+]        
1 25415U 98046C   23234.04183719  .00001222  00000+0  47816-3 0  9996
2 25415  44.9954  82.4575 0002825 158.4439   2.0348 14.34585264308770
